[{"OBJECT_NAME":"ONEWEB-0529","OBJECT_ID":"2022-138AJ","EPOCH":"2025-08-23T07:31:34.258944","MEAN_MOTION":13.19726256,"ECCENTRICITY":0.00017384,"INCLINATION":87.926,"RA_OF_ASC_NODE":4.2045,"ARG_OF_PERICENTER":89.99,"MEAN_ANOMALY":270.1432,"EPHEMERIS_TYPE":0,"CLASSIFICATION_TYPE":"U","NORAD_CAT_ID":54145,"ELEMENT_SET_NO":999,"REV_AT_EPOCH":13753,"BSTAR":0.0001655351,"MEAN_MOTION_DOT":7.9e-7,"MEAN_MOTION_DDOT":0},{"OBJECT_NAME":"ONEWEB-0531","OBJECT_ID":"2022-138AK","EPOCH":"2025-08-23T06:44:41.596800","MEAN_MOTION":13.20773084,"ECCENTRICITY":0.00019474,"INCLINATION":87.9291,"RA_OF_ASC_NODE":333.8093,"ARG_OF_PERICENTER":127.3067,"MEAN_ANOMALY":232.8244,"EPHEMERIS_TYPE":0,"CLASSIFICATION_TYPE":"U","NORAD_CAT_ID":54146,"ELEMENT_SET_NO":999,"REV_AT_EPOCH":13998,"BSTAR":5.5787731e-5,"MEAN_MOTION_DOT":3.6e-7,"MEAN_MOTION_DDOT":0},{"OBJECT_NAME":"ONEWEB-0535","OBJECT_ID":"2022-138AL","EPOCH":"2025-08-23T06:30:08.008992","MEAN_MOTION":13.19727364,"ECCENTRICITY":0.00019847,"INCLINATION":87.9268,"RA_OF_ASC_NODE":4.1674,"ARG_OF_PERICENTER":109.4076,"MEAN_ANOMALY":250.7272,"EPHEMERIS_TYPE":0,"CLASSIFICATION_TYPE":"U","NORAD_CAT_ID":54147,"ELEMENT_SET_NO":999,"REV_AT_EPOCH":13754,"BSTAR":-1.756927e-6,"MEAN_MOTION_DOT":1.2e-7,"MEAN_MOTION_DDOT":0},{"OBJECT_NAME":"ONEWEB-0536","OBJECT_ID":"2022-138AM","EPOCH":"2025-08-23T06:26:30.403680","MEAN_MOTION":13.20772921,"ECCENTRICITY":0.00017839,"INCLINATION":87.9297,"RA_OF_ASC_NODE":333.8583,"ARG_OF_PERICENTER":133.0681,"MEAN_ANOMALY":227.0602,"EPHEMERIS_TYPE":0,"CLASSIFICATION_TYPE":"U","NORAD_CAT_ID":54148,"ELEMENT_SET_NO":999,"REV_AT_EPOCH":13997,"BSTAR":6.7877211e-5,"MEAN_MOTION_DOT":4.1e-7,"MEAN_MOTION_DDOT":0},{"OBJECT_NAME":"ONEWEB-0527","OBJECT_ID":"2022-166A","EPOCH":"2025-08-21T15:22:35.875200","MEAN_MOTION":13.21827819,"ECCENTRICITY":0.00019161,"INCLINATION":87.9251,"RA_OF_ASC_NODE":303.7735,"ARG_OF_PERICENTER":97.7751,"MEAN_ANOMALY":262.3601,"EPHEMERIS_TYPE":0,"CLASSIFICATION_TYPE":"U","NORAD_CAT_ID":54642,"ELEMENT_SET_NO":999,"REV_AT_EPOCH":13196,"BSTAR":-0.00017967224,"MEAN_MOTION_DOT":-6.1e-7,"MEAN_MOTION_DDOT":0},{"OBJECT_NAME":"ONEWEB-0528","OBJECT_ID":"2022-166B","EPOCH":"2025-08-21T17:20:41.750880","MEAN_MOTION":13.21828022,"ECCENTRICITY":0.00018997,"INCLINATION":87.9253,"RA_OF_ASC_NODE":303.759,"ARG_OF_PERICENTER":95.6493,"MEAN_ANOMALY":264.4857,"EPHEMERIS_TYPE":0,"CLASSIFICATION_TYPE":"U","NORAD_CAT_ID":54643,"ELEMENT_SET_NO":999,"REV_AT_EPOCH":13198,"BSTAR":-1.878668e-6,"MEAN_MOTION_DOT":1.2e-7,"MEAN_MOTION_DDOT":0},{"OBJECT_NAME":"ONEWEB-0539","OBJECT_ID":"2022-166C","EPOCH":"2025-08-23T04:44:00.262464","MEAN_MOTION":13.21825381,"ECCENTRICITY":0.00022007,"INCLINATION":87.924,"RA_OF_ASC_NODE":303.4355,"ARG_OF_PERICENTER":95.5923,"MEAN_ANOMALY":264.5462,"EPHEMERIS_TYPE":0,"CLASSIFICATION_TYPE":"U","NORAD_CAT_ID":54644,"ELEMENT_SET_NO":999,"REV_AT_EPOCH":13217,"BSTAR":0.00021486509,"MEAN_MOTION_DOT":1.02e-6,"MEAN_MOTION_DDOT":0},{"OBJECT_NAME":"ONEWEB-0540","OBJECT_ID":"2022-166D","EPOCH":"2025-08-23T04:53:16.686240","MEAN_MOTION":13.21815571,"ECCENTRICITY":0.00018841,"INCLINATION":87.9249,"RA_OF_ASC_NODE":303.4695,"ARG_OF_PERICENTER":119.168,"MEAN_ANOMALY":240.9642,"EPHEMERIS_TYPE":0,"CLASSIFICATION_TYPE":"U","NORAD_CAT_ID":54645,"ELEMENT_SET_NO":999,"REV_AT_EPOCH":13216,"BSTAR":0.0061423643,"MEAN_MOTION_DOT":2.55e-5,"MEAN_MOTION_DDOT":0},{"OBJECT_NAME":"ONEWEB-0542","OBJECT_ID":"2022-166E","EPOCH":"2025-08-23T04:57:37.363680","MEAN_MOTION":13.21827801,"ECCENTRICITY":0.00023808,"INCLINATION":87.9242,"RA_OF_ASC_NODE":303.4313,"ARG_OF_PERICENTER":98.007,"MEAN_ANOMALY":262.1334,"EPHEMERIS_TYPE":0,"CLASSIFICATION_TYPE":"U","NORAD_CAT_ID":54646,"ELEMENT_SET_NO":999,"REV_AT_EPOCH":13217,"BSTAR":0.00034165926,"MEAN_MOTION_DOT":1.54e-6,"MEAN_MOTION_DDOT":0},{"OBJECT_NAME":"ONEWEB-0545","OBJECT_ID":"2022-166F","EPOCH":"2025-08-22T11:48:53.561376","MEAN_MOTION":13.21828483,"ECCENTRICITY":0.00025339,"INCLINATION":87.9248,"RA_OF_ASC_NODE":303.5908,"ARG_OF_PERICENTER":93.2882,"MEAN_ANOMALY":266.8542,"EPHEMERIS_TYPE":0,"CLASSIFICATION_TYPE":"U","NORAD_CAT_ID":54647,"ELEMENT_SET_NO":999,"REV_AT_EPOCH":13204,"BSTAR":-9.9338317e-5,"MEAN_MOTION_DOT":-2.8e-7,"MEAN_MOTION_DDOT":0},{"OBJECT_NAME":"ONEWEB-0580","OBJECT_ID":"2022-166G","EPOCH":"2025-08-23T05:20:20.738400","MEAN_MOTION":13.21826708,"ECCENTRICITY":0.00023796,"INCLINATION":87.9249,"RA_OF_ASC_NODE":303.4435,"ARG_OF_PERICENTER":99.8155,"MEAN_ANOMALY":260.3248,"EPHEMERIS_TYPE":0,"CLASSIFICATION_TYPE":"U","NORAD_CAT_ID":54648,"ELEMENT_SET_NO":999,"REV_AT_EPOCH":13218,"BSTAR":0.00015999002,"MEAN_MOTION_DOT":7.9e-7,"MEAN_MOTION_DDOT":0},{"OBJECT_NAME":"ONEWEB-0582","OBJECT_ID":"2022-166H","EPOCH":"2025-08-23T06:21:38.229120","MEAN_MOTION":13.21826867,"ECCENTRICITY":0.00025385,"INCLINATION":87.924,"RA_OF_ASC_NODE":303.4308,"ARG_OF_PERICENTER":99.4725,"MEAN_ANOMALY":260.6696,"EPHEMERIS_TYPE":0,"CLASSIFICATION_TYPE":"U","NORAD_CAT_ID":54649,"ELEMENT_SET_NO":999,"REV_AT_EPOCH":13216,"BSTAR":-4.4139142e-5,"MEAN_MOTION_DOT":-5.0e-8,"MEAN_MOTION_DDOT":0},{"OBJECT_NAME":"ONEWEB-0583","OBJECT_ID":"2022-166J","EPOCH":"2025-08-23T06:37:34.251168","MEAN_MOTION":13.21809767,"ECCENTRICITY":0.00016918,"INCLINATION":87.9248,"RA_OF_ASC_NODE":303.4516,"ARG_OF_PERICENTER":104.8375,"MEAN_ANOMALY":255.2947,"EPHEMERIS_TYPE":0,"CLASSIFICATION_TYPE":"U","NORAD_CAT_ID":54650,"ELEMENT_SET_NO":999,"REV_AT_EPOCH":13217,"BSTAR":0.0080721652,"MEAN_MOTION_DOT":3.347e-5,"MEAN_MOTION_DDOT":0},{"OBJECT_NAME":"ONEWEB-0584","OBJECT_ID":"2022-166K","EPOCH":"2025-08-21T15:08:59.726112","MEAN_MOTION":13.21827114,"ECCENTRICITY":0.0002399,"INCLINATION":87.925,"RA_OF_ASC_NODE":303.7637,"ARG_OF_PERICENTER":102.4878,"MEAN_ANOMALY":257.6524,"EPHEMERIS_TYPE":0,"CLASSIFICATION_TYPE":"U","NORAD_CAT_ID":54651,"ELEMENT_SET_NO":999,"REV_AT_EPOCH":13194,"BSTAR":-4.5706976e-5,"MEAN_MOTION_DOT":-6.0e-8,"MEAN_MOTION_DDOT":0},{"OBJECT_NAME":"ONEWEB-0585","OBJECT_ID":"2022-166L","EPOCH":"2025-08-23T05:54:24.616800","MEAN_MOTION":13.21826039,"ECCENTRICITY":0.00018616,"INCLINATION":87.9248,"RA_OF_ASC_NODE":303.4282,"ARG_OF_PERICENTER":98.1927,"MEAN_ANOMALY":261.9418,"EPHEMERIS_TYPE":0,"CLASSIFICATION_TYPE":"U","NORAD_CAT_ID":54652,"ELEMENT_SET_NO":999,"REV_AT_EPOCH":13216,"BSTAR":4.119878e-5,"MEAN_MOTION_DOT":3.0e-7,"MEAN_MOTION_DDOT":0},{"OBJECT_NAME":"ONEWEB-0586","OBJECT_ID":"2022-166M","EPOCH":"2025-08-23T06:12:34.335936","MEAN_MOTION":13.21826816,"ECCENTRICITY":0.00022016,"INCLINATION":87.925,"RA_OF_ASC_NODE":303.45,"ARG_OF_PERICENTER":96.6499,"MEAN_ANOMALY":263.4885,"EPHEMERIS_TYPE":0,"CLASSIFICATION_TYPE":"U","NORAD_CAT_ID":54653,"ELEMENT_SET_NO":999,"REV_AT_EPOCH":13216,"BSTAR":-0.00013081827,"MEAN_MOTION_DOT":-4.1e-7,"MEAN_MOTION_DDOT":0},{"OBJECT_NAME":"ONEWEB-0587","OBJECT_ID":"2022-166N","EPOCH":"2025-08-23T06:26:07.949184","MEAN_MOTION":13.21824811,"ECCENTRICITY":0.00017769,"INCLINATION":87.9246,"RA_OF_ASC_NODE":303.396,"ARG_OF_PERICENTER":98.7942,"MEAN_ANOMALY":261.3393,"EPHEMERIS_TYPE":0,"CLASSIFICATION_TYPE":"U","NORAD_CAT_ID":54654,"ELEMENT_SET_NO":999,"REV_AT_EPOCH":13232,"BSTAR":-0.0013434062,"MEAN_MOTION_DOT":-5.42e-6,"MEAN_MOTION_DDOT":0}]
