ONEWEB-0529             
1 54145U 22138AJ  25235.31359096  .00000079  00000+0  16554-3 0  9997
2 54145  87.9260   4.2045 0001738  89.9900 270.1432 13.19726256137532
ONEWEB-0531             
1 54146U 22138AK  25235.28103700  .00000036  00000+0  55788-4 0  9999
2 54146  87.9291 333.8093 0001947 127.3067 232.8244 13.20773084139984
ONEWEB-0535             
1 54147U 22138AL  25235.27092603  .00000012  00000+0 -17569-5 0  9999
2 54147  87.9268   4.1674 0001984 109.4076 250.7272 13.19727364137542
ONEWEB-0536             
1 54148U 22138AM  25235.26840745  .00000041  00000+0  67877-4 0  9994
2 54148  87.9297 333.8583 0001783 133.0681 227.0602 13.20772921139972
ONEWEB-0527             
1 54642U 22166A   25233.64069300 -.00000061  00000+0 -17967-3 0  9992
2 54642  87.9251 303.7735 0001916  97.7751 262.3601 13.21827819131968
ONEWEB-0528             
1 54643U 22166B   25233.72270545  .00000012  00000+0 -18787-5 0  9995
2 54643  87.9253 303.7590 0001899  95.6493 264.4857 13.21828022131985
ONEWEB-0539             
1 54644U 22166C   25235.19722526  .00000102  00000+0  21487-3 0  9998
2 54644  87.9240 303.4355 0002200  95.5923 264.5462 13.21825381132172
ONEWEB-0540             
1 54645U 22166D   25235.20366535  .00002550  00000+0  61424-2 0  9998
2 54645  87.9249 303.4695 0001884 119.1680 240.9642 13.21815571132166
ONEWEB-0542             
1 54646U 22166E   25235.20668245  .00000154  00000+0  34166-3 0  9994
2 54646  87.9242 303.4313 0002380  98.0070 262.1334 13.21827801132171
ONEWEB-0545             
1 54647U 22166F   25234.49228659 -.00000028  00000+0 -99338-4 0  9991
2 54647  87.9248 303.5908 0002533  93.2882 266.8542 13.21828483132042
ONEWEB-0580             
1 54648U 22166G   25235.22246225  .00000079  00000+0  15999-3 0  9997
2 54648  87.9249 303.4435 0002379  99.8155 260.3248 13.21826708132186
ONEWEB-0582             
1 54649U 22166H   25235.26502580 -.00000005  00000+0 -44139-4 0  9991
2 54649  87.9240 303.4308 0002538  99.4725 260.6696 13.21826867132167
ONEWEB-0583             
1 54650U 22166J   25235.27609087  .00003347  00000+0  80722-2 0  9990
2 54650  87.9248 303.4516 0001691 104.8375 255.2947 13.21809767132179
ONEWEB-0584             
1 54651U 22166K   25233.63124683 -.00000006  00000+0 -45707-4 0  9990
2 54651  87.9250 303.7637 0002399 102.4878 257.6524 13.21827114131945
ONEWEB-0585             
1 54652U 22166L   25235.24611825  .00000030  00000+0  41199-4 0  9995
2 54652  87.9248 303.4282 0001861  98.1927 261.9418 13.21826039132165
ONEWEB-0586             
1 54653U 22166M   25235.25873074 -.00000041  00000+0 -13082-3 0  9996
2 54653  87.9250 303.4500 0002201  96.6499 263.4885 13.21826816132166
ONEWEB-0587             
1 54654U 22166N   25235.26814756 -.00000542  00000+0 -13434-2 0  9996
2 54654  87.9246 303.3960 0001776  98.7942 261.3393 13.21824811132325
